STARLINK-31236          
1 58841U 24017R   24058.14582856  .00069209  00000+0  24882-2 0  9999
2 58841  53.1588  56.4476 0001897 108.3165 251.8041 15.28017648  6446
STARLINK-31228          
1 58842U 24017S   24058.14114752  .00060002  00000+0  21617-2 0  9991
2 58842  53.1596  56.4176 0001768  99.5716 260.5484 15.28015226  6430
STARLINK-31280          
1 58843U 24017T   24058.13677720 -.00031608  00000+0 -11346-2 0  9990
2 58843  53.1610  56.3876 0001064  62.5857 297.5251 15.27983728  6431
STARLINK-31269          
1 58844U 24017U   24058.13949849  .00002977  00000+0  85777-4 0  9991
2 58844  53.1616  55.6988 0000926  86.8813 273.2298 15.39093748  6430
STARLINK-31264          
1 58845U 24017V   24058.14575962 -.00001890  00000+0 -39429-4 0  9992
2 58845  53.1608  55.7370 0001350  80.5610 279.5547 15.38042156  6438
STARLINK-31273          
1 58846U 24017W   24058.13647024  .00013303  00000+0  49209-3 0  9997
2 58846  53.1611  56.3859 0002055 107.9747 252.1477 15.28017929  6427
STARLINK-31262          
1 58847U 24017X   24058.25001157 -.02208914  00000+0 -77779-1 0  9991
2 58847  53.1603  55.0955 0001034  88.6644 205.9148 15.32399533  6452
STARLINK-31238          
1 58853U 24019A   24056.30786231 -.00127423  00000+0 -31861-2 0  9993
2 58853  42.9998 119.2639 0001658 276.2611  83.8057 15.39817292  5483
STARLINK-31158          
1 58854U 24019B   24058.25001157  .00030865  00000+0  11868-2 0  9993
2 58854  42.9986 108.8348 0001177 259.3308 127.2715 15.25854197  5588
STARLINK-31237          
1 58855U 24019C   24058.25001157  .00051020  00000+0  17857-2 0  9994
2 58855  43.0003 108.9739 0001395 296.2838  33.3132 15.28751837  5665
STARLINK-31244          
1 58856U 24019D   24058.13009802 -.00000746  00000+0 -18683-4 0  9998
2 58856  42.9999 109.7182 0001339 242.4923 117.5792 15.25923906  5599
STARLINK-31216          
1 58857U 24019E   24058.14807008 -.00001651  00000+0 -53313-4 0  9999
2 58857  43.0003 108.9632 0001415 251.9320 108.1377 15.25883415  5607
STARLINK-31226          
1 58858U 24019F   24058.12107326 -.00000517  00000+0 -99496-5 0  9997
2 58858  43.0006 109.6499 0000578 245.1256 114.9535 15.25895981  5750
STARLINK-31197          
1 58859U 24019G   24058.13914995  .00011606  00000+0  45267-3 0  9991
2 58859  43.0010 109.7890 0001518 274.1995  85.8683 15.25921782  5758
STARLINK-31213          
1 58860U 24019H   24058.15269744  .00009461  00000+0  37060-3 0  9998
2 58860  43.0007 109.8885 0001070 275.7059  84.3670 15.25950999  5754
STARLINK-31199          
1 58861U 24019J   24057.91668981 -.00159769  00000+0 -62132-2 0  9994
2 58861  43.0000 110.8906 0001398 263.8259  14.9103 15.26004839  5829
STARLINK-31200          
1 58862U 24019K   24058.25001157  .00027617  00000+0  10633-2 0  9992
2 58862  42.9985 108.8041 0001723 263.3220 135.7403 15.25858243  5776
STARLINK-31149          
1 58863U 24019L   24058.16629924  .00000787  00000+0  39941-4 0  9995
2 58863  43.0007 109.9928 0001389 265.3895  94.6797 15.25908124  5759
STARLINK-31242          
1 58864U 24019M   24057.54776837 -.00006417  00000+0 -23553-3 0  9992
2 58864  42.9977 113.0934 0000940  28.5245 331.5657 15.25931544  5667
STARLINK-31223          
1 58865U 24019N   24058.25001157 -.00051716  00000+0 -19768-2 0  9992
2 58865  42.9987 108.8641 0001071 262.2491 111.8175 15.25981920  5614
STARLINK-31219          
1 58866U 24019P   24058.15498449  .00000445  00000+0  26858-4 0  9997
2 58866  43.0001 109.9083 0000733 247.7527 112.3246 15.25909847  5510
STARLINK-31198          
1 58867U 24019Q   24058.12332732  .00000930  00000+0  45368-4 0  9993
2 58867  42.9975 109.6487 0001268 225.4612 134.6136 15.25915381  5498
STARLINK-31196          
1 58868U 24019R   24058.12559009 -.00001241  00000+0 -37610-4 0  9991
2 58868  43.0037 109.6799 0002011 252.4704 107.5927 15.25910831  5510
STARLINK-31203          
1 58869U 24019S   24058.12113686  .00033344  00000+0  71057-3 0  9998
2 58869  42.9990 108.7834 0003402 205.8634 154.2054 15.44309304  5761
STARLINK-31201          
1 58870U 24019T   24058.16177486  .00000019  00000+0  10585-4 0  9995
2 58870  43.0042 109.9602 0001292 252.2047 107.8663 15.25910861  5549
STARLINK-31214          
1 58871U 24019U   24058.15043181  .00005726  00000+0  22826-3 0  9999
2 58871  43.0008 109.8727 0001105 254.3364 105.7365 15.25952253  5544
STARLINK-31215          
1 58872U 24019V   24058.14366487  .00005862  00000+0  23352-3 0  9992
2 58872  43.0009 109.8224 0001310 279.8333  80.2370 15.25942677  5591
STARLINK-31177          
1 58873U 24019W   24057.91668981  .00059952  00000+0  22835-2 0  9994
2 58873  42.9987 110.5890 0001497 269.6441 133.4846 15.25903996  5822
STARLINK-30945          
1 58874U 24019X   24058.18425738 -.00003341  00000+0 -11798-3 0  9996
2 58874  42.9986 109.2497 0000772 263.5525  96.5238 15.25903155  5765
STARLINK-31212          
1 58875U 24019Y   24058.15725587 -.00000125  00000+0  50491-5 0  9990
2 58875  43.0005 109.9268 0001130 278.5800  81.4923 15.25903287  5595
STARLINK-31306          
1 58876U 24020A   24057.69183317  .00005206  00000+0  20035-3 0  9993
2 58876  53.1607 168.5339 0001425 120.5876 239.5265 15.28042405  5653
STARLINK-31326          
1 58877U 24020B   24057.68019259  .00000489  00000+0  18813-4 0  9996
2 58877  53.1598 167.7527 0001801  58.4419 301.6764 15.45527644  4480
STARLINK-31300          
1 58878U 24020C   24057.68715558  .00001930  00000+0  82293-4 0  9997
2 58878  53.1602 168.5055 0001465 109.8773 250.2385 15.28039205  4471
STARLINK-31296          
1 58879U 24020D   24057.68279683  .00002227  00000+0  92982-4 0  9998
2 58879  53.1623 168.4722 0001376  82.9446 277.1711 15.28043859  4475
STARLINK-31328          
1 58880U 24020E   24057.91668981 -.01088293  00000+0 -78371-2 0  9993
2 58880  53.1632 163.4278 0001033  45.1695 344.7815 15.75453243  5779
STARLINK-31260          
1 58881U 24020F   24057.68245978  .00003875  00000+0  15228-3 0  9998
2 58881  53.1603 168.4717 0001188  99.9559 260.1575 15.28064653  4479
STARLINK-31323          
1 58882U 24020G   24057.74354420 -.00010993  00000+0 -38506-3 0  9994
2 58882  53.1595 168.1409 0001437 104.3841 255.7318 15.27998882  4482
STARLINK-31209          
1 58883U 24020H   24057.74320983 -.00001548  00000+0 -43220-4 0  9998
2 58883  53.1601 168.1415 0001646  87.4215 272.6974 15.28032272  4485
STARLINK-31315          
1 58884U 24020J   24057.75664454  .00054306  00000+0  35673-3 0  9994
2 58884  53.1599 163.8744 0000975 111.7386 248.3739 15.75202397  4548
STARLINK-31318          
1 58885U 24020K   24057.91668981 -.00076874  00000+0 -27883-2 0  9991
2 58885  53.1594 166.8264 0001343  68.6640  61.9348 15.28057340  5615
STARLINK-31320          
1 58886U 24020L   24057.91668981  .00010238  00000+0  38208-3 0  9996
2 58886  53.1581 167.2940 0001292  90.0469 168.8258 15.27993568  5773
STARLINK-31321          
1 58887U 24020M   24057.91668981  .00060585  00000+0  21855-2 0  9996
2 58887  53.1583 167.2428 0000814  88.2579 196.3187 15.27969297  5620
STARLINK-30970          
1 58888U 24020N   24058.00001157 -.00137371  00000+0 -50254-2 0  9999
2 58888  53.1583 166.9041 0001271  84.1034 275.1216 15.28108697  5682
STARLINK-31007          
1 58889U 24020P   24057.91668981  .00055790  00000+0  20149-2 0  9995
2 58889  53.1583 167.2391 0001192 106.3516 180.0414 15.27968313  5760
STARLINK-31230          
1 58890U 24020Q   24058.25001157  .00030948  00000+0  11260-2 0  9993
2 58890  53.1590 165.6471 0001388  81.0480 263.8711 15.27999462  5610
STARLINK-31245          
1 58891U 24020R   24058.25001157  .00409155  00000+0  12956-2 0  9997
2 58891  53.1561 159.6811 0001662  47.7717 359.6041 15.89693292  5808
STARLINK-31254          
1 58892U 24020S   24057.91668981  .00060513  00000+0  21827-2 0  9992
2 58892  53.1586 167.1877 0001308  95.0015 217.1250 15.27972607  5774
STARLINK-31255          
1 58893U 24020T   24058.25001157  .00088595  00000+0  31793-2 0  9990
2 58893  53.1596 165.5957 0001424 117.9376 252.7336 15.27956286  5720
STARLINK-31243          
1 58894U 24020U   24058.16667824 -.00061199  00000+0 -22138-2 0  9996
2 58894  53.1595 165.9779 0001232  73.5639 200.2488 15.28038442  5454
STARLINK-31218          
1 58895U 24020V   24058.25001157  .00025278  00000+0  92360-3 0  9999
2 58895  53.1601 165.5442 0001296  84.5588 311.8921 15.27968692  5618
STARLINK-31221          
1 58896U 24020W   24058.25001157  .00047561  00000+0  17237-2 0  9998
2 58896  53.1602 165.5406 0001036  98.1268 300.2352 15.27925334  5614
STARLINK-31190          
1 58897U 24020X   24057.91668981  .00060001  00000+0  21636-2 0  9997
2 58897  53.1600 167.0375 0001554  70.9671 316.5971 15.27986186  5503
STARLINK-31317          
1 58931U 24027A   24057.91668981 -.01766398  00000+0 -30514-1 0  9992
2 58931  53.1590 153.9080 0000949  87.1922  11.4997 15.53672549  3649
STARLINK-31378          
1 58932U 24027B   24058.16667824 -.01699731  00000+0 -30293-1 0  9996
2 58932  53.1592 152.7004 0000914 102.6970 316.5362 15.52693048  3655
STARLINK-31350          
1 58933U 24027C   24058.16667824 -.01699091  00000+0 -30288-1 0  9990
2 58933  53.1591 152.6923 0000937  91.4631 331.6580 15.52685835  3653
STARLINK-31337          
1 58934U 24027D   24058.16667824 -.01699597  00000+0 -30295-1 0  9990
2 58934  53.1591 152.6964 0000827  91.9000 329.2773 15.52689555  3652
STARLINK-31362          
1 58935U 24027E   24058.16667824 -.01701214  00000+0 -30331-1 0  9992
2 58935  53.1596 152.6890 0001110  95.6788 329.3840 15.52683714  3619
STARLINK-31383          
1 58936U 24027F   24058.16667824 -.01700894  00000+0 -30330-1 0  9995
2 58936  53.1594 152.6844 0000859  97.3373 329.6699 15.52681009  3659
STARLINK-31390          
1 58937U 24027G   24058.16667824 -.01700352  00000+0 -30323-1 0  9997
2 58937  53.1594 152.6803 0000900  94.2544 334.6967 15.52677218  3659
